start=new Date('2023-02-14T00:00:00.000Z').valueOf();
sats=[{"REF_FRAME":"TEME","NORAD_CAT_ID":"53043","APOAPSIS":"563.420","REV_AT_EPOCH":"3285","EPOCH":"2023-02-13T11:35:36.130848","OBJECT_ID":"2022-077A","INCLINATION":"97.6537","EPHEMERIS_TYPE":"0","MEAN_ANOMALY":"120.0911","TLE_LINE1":"1 53043U 22077A   23044.48305707  .00000013  00000-0  56183-5 0  9992","GP_ID":"225324842","SEMIMAJOR_AXIS":"6941.152","CENTER_NAME":"EARTH","ARG_OF_PERICENTER":"240.0255","PERIOD":"95.920","TLE_LINE2":"2 53043  97.6537 227.3273 0000580 240.0255 120.0911 15.01258175 32858","MEAN_MOTION_DOT":"0.00000013","ELEMENT_SET_NO":"999","OBJECT_NAME":"STARLINK-4362","DECAY_DATE":null,"COUNTRY_CODE":"US","TIME_SYSTEM":"UTC","CLASSIFICATION_TYPE":"U","MEAN_ELEMENT_THEORY":"SGP4","PERIAPSIS":"562.615","OBJECT_TYPE":"PAYLOAD","LAUNCH_DATE":"2022-07-11","RCS_SIZE":"LARGE","MEAN_MOTION_DDOT":"0.0000000000000","MEAN_MOTION":"15.01258175","FILE":"3789366","SITE":"AFWTR","RA_OF_ASC_NODE":"227.3273","BSTAR":"0.00000561830000","ECCENTRICITY":"0.00005800"},{"OBJECT_NAME":"STARLINK-4349","MEAN_MOTION_DOT":"0.00003244","ELEMENT_SET_NO":"999","TLE_LINE2":"2 53044  97.6540 227.3208 0001384 252.0093 108.0981 15.01264014 32859","PERIOD":"95.919","ARG_OF_PERICENTER":"252.0093","MEAN_ELEMENT_THEORY":"SGP4","PERIAPSIS":"562.039","CLASSIFICATION_TYPE":"U","TIME_SYSTEM":"UTC","COUNTRY_CODE":"US","DECAY_DATE":null,"FILE":"3789366","SITE":"AFWTR","MEAN_MOTION_DDOT":"0.0000000000000","RCS_SIZE":"LARGE","MEAN_MOTION":"15.01264014","OBJECT_TYPE":"PAYLOAD","LAUNCH_DATE":"2022-07-11","ECCENTRICITY":"0.00013840","BSTAR":"0.00025705000000","RA_OF_ASC_NODE":"227.3208","EPOCH":"2023-02-13T11:30:16.066368","APOAPSIS":"563.960","REV_AT_EPOCH":"3285","NORAD_CAT_ID":"53044","REF_FRAME":"TEME","INCLINATION":"97.6540","OBJECT_ID":"2022-077B","SEMIMAJOR_AXIS":"6941.134","CENTER_NAME":"EARTH","GP_ID":"225325592","TLE_LINE1":"1 53044U 22077B   23044.47935262  .00003244  00000-0  25705-3 0  9990","MEAN_ANOMALY":"108.0981","EPHEMERIS_TYPE":"0"},{"CENTER_NAME":"EARTH","SEMIMAJOR_AXIS":"6941.130","GP_ID":"225326342","TLE_LINE1":"1 53045U 22077C   23044.48490885  .00001540  00000-0  12443-3 0  9991","MEAN_ANOMALY":"204.7156","EPHEMERIS_TYPE":"0","OBJECT_ID":"2022-077C","INCLINATION":"97.6534","EPOCH":"2023-02-13T11:38:16.124640","REV_AT_EPOCH":"3285","APOAPSIS":"563.163","NORAD_CAT_ID":"53045","REF_FRAME":"TEME","ECCENTRICITY":"0.00002420","BSTAR":"0.00012443000000","RA_OF_ASC_NODE":"227.3114","SITE":"AFWTR","FILE":"3789366","MEAN_MOTION":"15.01265421","RCS_SIZE":"LARGE","MEAN_MOTION_DDOT":"0.0000000000000","OBJECT_TYPE":"PAYLOAD","LAUNCH_DATE":"2022-07-11","MEAN_ELEMENT_THEORY":"SGP4","PERIAPSIS":"562.827","CLASSIFICATION_TYPE":"U","COUNTRY_CODE":"US","TIME_SYSTEM":"UTC","DECAY_DATE":null,"OBJECT_NAME":"STARLINK-4350","MEAN_MOTION_DOT":"0.00001540","ELEMENT_SET_NO":"999","TLE_LINE2":"2 53045  97.6534 227.3114 0000242 155.4080 204.7156 15.01265421 32854","PERIOD":"95.919","ARG_OF_PERICENTER":"155.4080"},{"FILE":"3789366","SITE":"AFWTR","OBJECT_TYPE":"PAYLOAD","LAUNCH_DATE":"2022-07-11","MEAN_MOTION_DDOT":"0.0000000000000","RCS_SIZE":"LARGE","MEAN_MOTION":"15.01259961","BSTAR":"0.00003318500000","ECCENTRICITY":"0.00014670","RA_OF_ASC_NODE":"227.3207","MEAN_MOTION_DOT":"0.00000367","ELEMENT_SET_NO":"999","OBJECT_NAME":"STARLINK-4331","ARG_OF_PERICENTER":"270.2175","PERIOD":"95.919","TLE_LINE2":"2 53046  97.6532 227.3207 0001467 270.2175  89.8881 15.01259961 32856","COUNTRY_CODE":"US","TIME_SYSTEM":"UTC","CLASSIFICATION_TYPE":"U","PERIAPSIS":"561.994","MEAN_ELEMENT_THEORY":"SGP4","DECAY_DATE":null,"TLE_LINE1":"1 53046U 22077D   23044.47750294  .00000367  00000-0  33185-4 0  9997","GP_ID":"225326071","CENTER_NAME":"EARTH","SEMIMAJOR_AXIS":"6941.147","EPHEMERIS_TYPE":"0","MEAN_ANOMALY":"89.8881","APOAPSIS":"564.030","REV_AT_EPOCH":"3285","EPOCH":"2023-02-13T11:27:36.254016","REF_FRAME":"TEME","NORAD_CAT_ID":"53046","OBJECT_ID":"2022-077D","INCLINATION":"97.6532"},{"EPOCH":"2023-02-13T11:24:56.493504","APOAPSIS":"563.393","REV_AT_EPOCH":"3285","NORAD_CAT_ID":"53047","REF_FRAME":"TEME","OBJECT_ID":"2022-077E","INCLINATION":"97.6537","CENTER_NAME":"EARTH","SEMIMAJOR_AXIS":"6941.163","GP_ID":"225325341","TLE_LINE1":"1 53047U 22077E   23044.47565386 -.00000797  00000-0 -57507-4 0  9997","MEAN_ANOMALY":"137.5309","EPHEMERIS_TYPE":"0","OBJECT_NAME":"STARLINK-4352","MEAN_MOTION_DOT":"-0.00000797","ELEMENT_SET_NO":"999","TLE_LINE2":"2 53047  97.6537 227.3157 0000526 222.5875 137.5309 15.01254879 32857","PERIOD":"95.920","ARG_OF_PERICENTER":"222.5875","PERIAPSIS":"562.663","MEAN_ELEMENT_THEORY":"SGP4","CLASSIFICATION_TYPE":"U","TIME_SYSTEM":"UTC","COUNTRY_CODE":"US","DECAY_DATE":null,"SITE":"AFWTR","FILE":"3789366","MEAN_MOTION":"15.01254879","RCS_SIZE":"LARGE","MEAN_MOTION_DDOT":"0.0000000000000","LAUNCH_DATE":"2022-07-11","OBJECT_TYPE":"PAYLOAD","ECCENTRICITY":"0.00005260","BSTAR":"-0.00005750700000","RA_OF_ASC_NODE":"227.3157"},{"APOAPSIS":"563.761","REV_AT_EPOCH":"3346","EPOCH":"2023-02-13T17:49:13.171584","REF_FRAME":"TEME","NORAD_CAT_ID":"53048","OBJECT_ID":"2022-077F","INCLINATION":"97.6548","GP_ID":"225330720","TLE_LINE1":"1 53048U 22077F   23044.74251356  .00002223  00000-0  17765-3 0  9992","CENTER_NAME":"EARTH","SEMIMAJOR_AXIS":"6941.154","EPHEMERIS_TYPE":"0","MEAN_ANOMALY":"104.8280","ELEMENT_SET_NO":"999","MEAN_MOTION_DOT":"0.00002223","OBJECT_NAME":"STARLINK-4355","PERIOD":"95.920","ARG_OF_PERICENTER":"255.2826","TLE_LINE2":"2 53048  97.6548 227.5811 0001069 255.2826 104.8280 15.01257699 33467","TIME_SYSTEM":"UTC","COUNTRY_CODE":"US","MEAN_ELEMENT_THEORY":"SGP4","PERIAPSIS":"562.277","CLASSIFICATION_TYPE":"U","DECAY_DATE":null,"SITE":"AFWTR","FILE":"3789498","OBJECT_TYPE":"PAYLOAD","LAUNCH_DATE":"2022-07-11","RCS_SIZE":"LARGE","MEAN_MOTION":"15.01257699","MEAN_MOTION_DDOT":"0.0000000000000","BSTAR":"0.00017765000000","ECCENTRICITY":"0.00010690","RA_OF_ASC_NODE":"227.5811"},{"GP_ID":"225331166","TLE_LINE1":"1 53049U 22077G   23044.73694699  .00002369  00000-0  18895-3 0  9999","SEMIMAJOR_AXIS":"6941.127","CENTER_NAME":"EARTH","EPHEMERIS_TYPE":"0","MEAN_ANOMALY":"102.8356","INCLINATION":"97.6545","OBJECT_ID":"2022-077G","APOAPSIS":"564.079","REV_AT_EPOCH":"3288","EPOCH":"2023-02-13T17:41:12.219936","REF_FRAME":"TEME","NORAD_CAT_ID":"53049","BSTAR":"0.00018895000000","ECCENTRICITY":"0.00015660","RA_OF_ASC_NODE":"227.5727","SITE":"AFWTR","FILE":"3789505","OBJECT_TYPE":"PAYLOAD","LAUNCH_DATE":"2022-07-11","MEAN_MOTION":"15.01266553","RCS_SIZE":"LARGE","MEAN_MOTION_DDOT":"0.0000000000000","COUNTRY_CODE":"US","TIME_SYSTEM":"UTC","PERIAPSIS":"561.905","MEAN_ELEMENT_THEORY":"SGP4","CLASSIFICATION_TYPE":"U","DECAY_DATE":null,"MEAN_MOTION_DOT":"0.00002369","ELEMENT_SET_NO":"999","OBJECT_NAME":"STARLINK-4345","PERIOD":"95.919","ARG_OF_PERICENTER":"257.2693","TLE_LINE2":"2 53049  97.6545 227.5727 0001566 257.2693 102.8356 15.01266553 32883"},{"RCS_SIZE":"LARGE","MEAN_MOTION":"15.01242509","MEAN_MOTION_DDOT":"0.0000000000000","OBJECT_TYPE":"PAYLOAD","LAUNCH_DATE":"2022-07-11","SITE":"AFWTR","FILE":"3789467","RA_OF_ASC_NODE":"227.5762","ECCENTRICITY":"0.00019790","BSTAR":"-0.00003217700000","TLE_LINE2":"2 53050  97.6544 227.5762 0001979 248.6360 111.4653 15.01242509 33462","ARG_OF_PERICENTER":"248.6360","PERIOD":"95.921","OBJECT_NAME":"STARLINK-4343","ELEMENT_SET_NO":"999","MEAN_MOTION_DOT":"-0.00000472","DECAY_DATE":null,"CLASSIFICATION_TYPE":"U","MEAN_ELEMENT_THEORY":"SGP4","PERIAPSIS":"561.692","COUNTRY_CODE":"US","TIME_SYSTEM":"UTC","MEAN_ANOMALY":"111.4653","EPHEMERIS_TYPE":"0","CENTER_NAME":"EARTH","SEMIMAJOR_AXIS":"6941.201","TLE_LINE1":"1 53050U 22077H   23044.74043044 -.00000472  00000-0 -32177-4 0  9999","GP_ID":"225330277","NORAD_CAT_ID":"53050","REF_FRAME":"TEME","EPOCH":"2023-02-13T17:46:13.190016","REV_AT_EPOCH":"3346","APOAPSIS":"564.439","OBJECT_ID":"2022-077H","INCLINATION":"97.6544"},{"OBJECT_ID":"2022-077J","INCLINATION":"97.6549","EPOCH":"2023-02-13T11:14:16.495008","APOAPSIS":"563.209","REV_AT_EPOCH":"3284","NORAD_CAT_ID":"53051","REF_FRAME":"TEME","SEMIMAJOR_AXIS":"6941.136","CENTER_NAME":"EARTH","TLE_LINE1":"1 53051U 22077J   23044.46824647 -.00001194  00000-0 -88412-4 0  9990","GP_ID":"225324843","MEAN_ANOMALY":"43.8289","EPHEMERIS_TYPE":"0","CLASSIFICATION_TYPE":"U","MEAN_ELEMENT_THEORY":"SGP4","PERIAPSIS":"562.793","COUNTRY_CODE":"US","TIME_SYSTEM":"UTC","DECAY_DATE":null,"OBJECT_NAME":"STARLINK-4336","ELEMENT_SET_NO":"999","MEAN_MOTION_DOT":"-0.00001194","TLE_LINE2":"2 53051  97.6549 227.3087 0000299 316.2911  43.8289 15.01263517 32840","ARG_OF_PERICENTER":"316.2911","PERIOD":"95.919","ECCENTRICITY":"0.00002990","BSTAR":"-0.00008841200000","RA_OF_ASC_NODE":"227.3087","SITE":"AFWTR","FILE":"3789366","MEAN_MOTION_DDOT":"0.0000000000000","RCS_SIZE":"LARGE","MEAN_MOTION":"15.01263517","LAUNCH_DATE":"2022-07-11","OBJECT_TYPE":"PAYLOAD"},{"DECAY_DATE":null,"MEAN_ELEMENT_THEORY":"SGP4","PERIAPSIS":"561.753","CLASSIFICATION_TYPE":"U","COUNTRY_CODE":"US","TIME_SYSTEM":"UTC","TLE_LINE2":"2 53052  97.6543 227.3131 0001805 267.6190  92.4828 15.01261862 32847","PERIOD":"95.919","ARG_OF_PERICENTER":"267.6190","OBJECT_NAME":"STARLINK-4341","MEAN_MOTION_DOT":"0.00000461","ELEMENT_SET_NO":"999","RA_OF_ASC_NODE":"227.3131","ECCENTRICITY":"0.00018050","BSTAR":"0.00004048300000","RCS_SIZE":"LARGE","MEAN_MOTION_DDOT":"0.0000000000000","MEAN_MOTION":"15.01261862","LAUNCH_DATE":"2022-07-11","OBJECT_TYPE":"PAYLOAD","SITE":"AFWTR","FILE":"3789366","INCLINATION":"97.6543","OBJECT_ID":"2022-077K","NORAD_CAT_ID":"53052","REF_FRAME":"TEME","EPOCH":"2023-02-13T11:19:36.173280","REV_AT_EPOCH":"3284","APOAPSIS":"564.259","MEAN_ANOMALY":"92.4828","EPHEMERIS_TYPE":"0","CENTER_NAME":"EARTH","SEMIMAJOR_AXIS":"6941.141","GP_ID":"225325593","TLE_LINE1":"1 53052U 22077K   23044.47194645  .00000461  00000-0  40483-4 0  9990"}];
